COSMOS 2433 (720)       
1 32275U 07052A   26078.75672438 -.00000016  00000+0  00000+0 0  9994
2 32275  65.6261 318.9456 0001487 272.6324  87.4199  2.13104206143150
COSMOS 2432 (719)       
1 32276U 07052B   26078.61190225 -.00000015  00000+0  00000+0 0  9998
2 32276  65.6421 319.0765 0010274 333.4141 219.7192  2.13103414143176
COSMOS 2434 (721)       
1 32393U 07065A   26079.10331887  .00000033  00000+0  00000+0 0  9997
2 32393  64.3179 194.9179 0003132  67.0116  89.1780  2.13101426141876
COSMOS 2436 (723)       
1 32395U 07065C   26079.19253337  .00000034  00000+0  00000+0 0  9992
2 32395  64.3265 194.9861 0017378   5.2348 352.0761  2.13100342141822
COSMOS 2456 (730)       
1 36111U 09070A   26077.29044207  .00000050  00000+0  00000+0 0  9991
2 36111  64.9576  74.0714 0006437 306.4576  56.5901  2.13103777126494
COSMOS 2457 (733)       
1 36112U 09070B   26075.94251828  .00000056  00000+0  00000+0 0  9997
2 36112  64.9424  73.9629 0001991 199.0875 338.1321  2.13101178126463
COSMOS 2460 (732)       
1 36402U 10007C   26079.04135480 -.00000015  00000+0  00000+0 0  9997
2 36402  65.4707 317.4856 0002067  31.0346   4.5015  2.13106311124833
COSMOS 2476 (744)       
1 37867U 11064A   26075.21460096  .00000061  00000+0  00000+0 0  9996
2 37867  65.2165  76.0088 0025190 241.6825 237.1880  2.13103968111782
COSMOS 2477 (745)       
1 37868U 11064B   26078.10574994  .00000050  00000+0  00000+0 0  9999
2 37868  65.2246  75.9896 0022251 243.4187 114.0669  2.13103019111835
COSMOS 2475 (743)       
1 37869U 11064C   26079.11814524  .00000043  00000+0  00000+0 0  9990
2 37869  65.2324  75.9763 0028116 254.9154 114.7459  2.13101779111872
COSMOS 2485 (747)       
1 39155U 13019A   26077.34302470  .00000056  00000+0  00000+0 0  9991
2 39155  65.3680  76.6522 0025483 237.3864 122.3968  2.13103254100346
COSMOS 2492 (754)       
1 39620U 14012A   26078.24045422 -.00000011  00000+0  00000+0 0  9995
2 39620  65.3489 316.9956 0012891 328.3688  31.6241  2.13103405 93328
COSMOS 2500 (755)       
1 40001U 14032A   26078.88061575 -.00000013  00000+0  00000+0 0  9991
2 40001  65.2838 316.7281 0005011 196.7150 163.3372  2.13106215 91559
COSMOS 2501 (702K)      
1 40315U 14075A   26076.79507771  .00000014  00000+0  00000+0 0  9997
2 40315  63.6165 193.5334 0021061 206.8678 153.0099  2.13101428 87900
COSMOS 2514 (751)       
1 41330U 16008A   26078.65657851 -.00000012  00000+0  00000+0 0  9994
2 41330  65.0735 316.0813 0008993 205.5086 154.5160  2.13102596 78710
COSMOS 2522 (752)       
1 42939U 17055A   26078.96368759  .00000032  00000+0  00000+0 0  9994
2 42939  64.0787 194.9186 0007825 230.2093 129.7159  2.13101843 66076
COSMOS 2527 (756)       
1 43508U 18053A   26076.10942072  .00000062  00000+0  00000+0 0  9999
2 43508  65.5257  76.9774 0009581 246.4371 113.4979  2.13102320 60310
COSMOS 2529 (757)       
1 43687U 18086A   26076.67559931  .00000014  00000+0  00000+0 0  9990
2 43687  64.2949 195.6815 0008511 253.2966 106.5930  2.13102054 57337
COSMOS 2534 (758)       
1 44299U 19030A   26078.10296920  .00000026  00000+0  00000+0 0  9999
2 44299  64.3684 195.6470 0010301 278.7637 230.6427  2.13102427 53002
COSMOS 2544 (759)       
1 44850U 19088A   26075.58481207  .00000063  00000+0  00000+0 0  9999
2 44850  65.5133  76.8200 0015831 260.1678  99.6904  2.13102147 48748
COSMOS 2545 (760)       
1 45358U 20018A   26077.18814652 -.00000009  00000+0  00000+0 0  9991
2 45358  64.4092 315.6196 0007581 248.9168 111.0721  2.13102681 46728
COSMOS 2547 (705K)      
1 46805U 20075A   26077.84603400  .00000024  00000+0  00000+0 0  9998
2 46805  64.5993 195.4877 0007150 231.5595 128.3639  2.13100357 41981
COSMOS 2557 (706K)      
1 52984U 22075A   26078.94956573 -.00000017  00000+0  00000+0 0  9992
2 52984  64.3501 317.6315 0011253 283.8514  76.0913  2.13102034 28819
COSMOS 2559 (707K)      
1 54031U 22130A   26077.36120623 -.00000013  00000+0  00000+0 0  9999
2 54031  64.3233 317.7733 0010705 179.4984 180.5719  2.13101278 26758
COSMOS 2564 (761)       
1 54377U 22161A   26077.67391558  .00000022  00000+0  00000+0 0  9996
2 54377  64.7408 195.7137 0009833 212.6965 147.2292  2.13101863 25700
COSMOS 2569 (703K)      
1 57517U 23114A   26077.68675041  .00000052  00000+0  00000+0 0  9990
2 57517  65.2511  75.6709 0012953 292.7114  67.1773  2.13103868 20338
COSMOS 2584 (704K)      
1 63130U 25042A   26077.57363126  .00000052  00000+0  00000+0 0  9996
2 63130  65.0331  75.8812 0007660 237.8729 122.0796  2.13103395  8115
COSMOS 2596 (708K)      
1 65590U 25206B   26078.61199618 -.00000016  00000+0  00000+0 0  9990
2 65590  64.6853 318.1063 0012572 316.4966 237.4355  2.13100226  4003
